norad_id,name,regime,epoch,line1,line2,inclination,eccentricity,mean_motion,raan,arg_pericenter,mean_anomaly
33401,IBEX,HAO,15171.07696920,1 33401U 08051A   15171.07696920 -.00001749 +00000-0 +00000-0 0 0137\,2 33401 014.4488 108.2175 4225800 051.3719 001.3097 00.0979670700283,14.4488,0.42258,0.09796707,108.2175,51.3719,1.3097
33401,IBEX,HAO,15180.97481641,1 33401U 08051A   15180.97481641 -.00001221  00000-0  00000+0 0  1381\,2 33401 014.5324 107.5961 4028146 052.7665 356.7684 00.10145854  2848,14.5324,0.4028146,0.10145854,107.5961,52.7665,356.7684
33401,IBEX,HAO,15191.19846846,1 33401U 08051A   15191.19846846 -.00001673  00000-0  00000+0 0  1391\,2 33401 016.0946 106.3168 5034025 060.4871 002.7415 00.10833274  2851,16.0946,0.5034025,0.10833274,106.3168,60.4871,2.7415
33401,IBEX,HAO,15200.25421825,1 33401U 08051A   15200.25421825 -.00002279  00000-0  00000+0 0  1400\,2 33401 016.1716 106.1263 5276673 060.9570 356.9045 00.10403342  2862,16.1716,0.5276673,0.10403342,106.1263,60.957,356.9045
33401,IBEX,HAO,15218.65704320,1 33401U 08051A   15218.65704320 -.00002533  00000-0  00000+0 0  1411\,2 33401 016.7980 095.7415 6077760 076.3083 350.5583 00.11596063  2883,16.798,0.607776,0.11596063,95.7415,76.3083,350.5583
33401,IBEX,HAO,15227.36711040,1 33401U 08051A   15227.36711040 -.00003358  00000-0  00000+0 0  1423\,2 33401 016.8631 095.1780 6262904 077.2187 357.8891 00.11108559  2899,16.8631,0.6262904,0.11108559,95.178,77.2187,357.8891
33401,IBEX,HAO,15235.87025207,1 33401U 08051A   15235.87025207 -.00002604  00000-0  00000+0 0  1446\,2 33401 017.1021 094.9969 6121360 078.4012 354.7728 00.11759464  2906,17.1021,0.612136,0.11759464,94.9969,78.4012,354.7728
33401,IBEX,HAO,15235.90657348,1 33401U 08051A   15235.90657348 -.00002630  00000-0  00000+0 0  1435\,2 33401 016.9173 094.8122 6116621 077.8875 358.1770 00.11765463  2906,16.9173,0.6116621,0.11765463,94.8122,77.8875,358.177
33401,IBEX,HAO,15244.40391231,1 33401U 08051A   15244.40391231 -.00003049  00000-0  00000+0 0  1453\,2 33401 017.5056 094.1754 6507238 079.1390 001.7606 00.11563429  2910,17.5056,0.6507238,0.11563429,94.1754,79.139,1.7606
33401,IBEX,HAO,15252.54607218,1 33401U 08051A   15252.54607218 -.00005127 +00000-0 +00000-0 0 0146\,2 33401 017.5179 094.1424 6546908 078.9296 359.7618 00.1176431600292,17.5179,0.6546908,0.11764316,94.1424,78.9296,359.7618
33401,IBEX,HAO,15260.79307103,1 33401U 08051A   15260.79307103 -.00002673  00000-0  00000+0 0  1472\,2 33401  17.6297  93.6149 6520480  79.6716   0.6040  0.11950905  2932,17.6297,0.652048,0.11950905,93.6149,79.6716,0.604
33401,IBEX,HAO,15268.99118228,1 33401U 08051A   15268.99118228 -.00002928  00000-0  00000+0 0  1484\,2 33401  17.6225  92.3747 6565887  80.5438   1.9722  0.11440738  2945,17.6225,0.6565887,0.11440738,92.3747,80.5438,1.9722
33401,IBEX,HAO,15277.22804744,1 33401U 08051A   15277.22804744 -.00003181  00000-0  00000+0 0  1498\,2 33401  17.5345  90.2260 6325989  82.4351   0.1951  0.11957485  2954,17.5345,0.6325989,0.11957485,90.226,82.4351,0.1951
33401,IBEX,HAO,15285.71247165,1 33401U 08051A   15285.71247165 -.00002074  00000-0  00000+0 0  1501\,2 33401  17.6884  89.4239 6441607  83.5039   3.5258  0.11443001  2962,17.6884,0.6441607,0.11443001,89.4239,83.5039,3.5258
33401,IBEX,HAO,15294.08737917,1 33401U 08051A   15294.08737917 -.00001817  00000-0  00000+0 0  1515\,2 33401  17.6473  88.1973 6330461  84.7700   2.5860  0.11691852  2978,17.6473,0.6330461,0.11691852,88.1973,84.77,2.586
33401,IBEX,HAO,15303.09416247,1 33401U 08051A   15303.09416247 -.00001992  00000-0  00000+0 0  1522\,2 33401  18.7204  68.3257 5875013 106.7232   0.4450  0.11313466  2983,18.7204,0.5875013,0.11313466,68.3257,106.7232,0.445
33401,IBEX,HAO,15312.16662003,1 33401U 08051A   15312.16662003 -.00001338  00000-0  00000+0 0  1538\,2 33401  19.1252  68.1604 6014900 108.5705   3.4639  0.10744162  2994,19.1252,0.60149,0.10744162,68.1604,108.5705,3.4639
33401,IBEX,HAO,15321.09290200,1 33401U 08051A   15321.09290200 -.00000978  00000-0  00000+0 0  1546\,2 33401  19.2253  67.0494 5822483 109.7444   2.2444  0.11201158  3004,19.2253,0.5822483,0.11201158,67.0494,109.7444,2.2444
33401,IBEX,HAO,15330.48079997,1 33401U 08051A   15330.48079997 -.00001406  00000-0  00000+0 0  1555\,2 33401  23.0063  50.7825 5452043 129.3099 353.4378  0.10994303  3016,23.0063,0.5452043,0.10994303,50.7825,129.3099,353.4378
33401,IBEX,HAO,15340.08511297,1 33401U 08051A   15340.08511297 -.00000921 +00000-0 +00000-0 0 0001\,2 33401 023.2227 050.5119 5694857 129.6910 003.1166 00.1041055800317,23.2227,0.5694857,0.10410558,50.5119,129.691,3.1166
33401,IBEX,HAO,15349.32376941,1 33401U 08051A   15349.32376941 -.00000892  00000-0  00000+0 0  1465\,2 33401  23.4065  49.8107 5504560 130.1183 359.6655  0.10705240  3038,23.4065,0.550456,0.1070524,49.8107,130.1183,359.6655
33401,IBEX,HAO,15349.46460786,1 33401U 08051A   15349.46460786 -.00000929  00000-0  00000+0 0  1507\,2 33401  23.4520  50.1510 5273994 130.4846 359.6100  0.10598164  3030,23.452,0.5273994,0.10598164,50.151,130.4846,359.61
33401,IBEX,HAO,15358.85450670,1 33401U 08051A   15358.85450670 -.00001673  00000-0  00000+0 0  1474\,2 33401  25.4467  44.8726 4786984 136.1818 347.7882  0.10297052  3048,25.4467,0.4786984,0.10297052,44.8726,136.1818,347.7882
33401,IBEX,HAO,16004.17184702,1 33401U 08051A   16004.17184702 -.00001224  00000-0  00000+0 0  1481\,2 33401  25.6842  44.5413 4992847 137.0086 358.9672  0.09903405  3057,25.6842,0.4992847,0.09903405,44.5413,137.0086,358.9672
33401,IBEX,HAO,16014.01347003,1 33401U 08051A   16014.01347003 -.00001573  00000-0  00000+0 0  1498\,2 33401  25.8624  44.2392 4993792 136.1565 357.5212  0.09690578  3062,25.8624,0.4993792,0.09690578,44.2392,136.1565,357.5212
33401,IBEX,HAO,16024.14631003,1 33401U 08051A   16024.14631003 -.00002556  00000-0  00000+0 0  1514\,2 33401  25.7116  45.0916 4654653 133.8799 356.5170  0.09859257  3086,25.7116,0.4654653,0.09859257,45.0916,133.8799,356.517
33401,IBEX,HAO,16034.31574671,1 33401U 08051A   16034.31574671 -.00001889  00000-0  00000+0 0  1520\,2 33401  25.8738  44.6925 4616402 135.3828 356.8940  0.09933274  3093,25.8738,0.4616402,0.09933274,44.6925,135.3828,356.894
33401,IBEX,HAO,16044.42120055,1 33401U 08051A   16044.42120055 -.00002422  00000-0  00000+0 0  1531\,2 33401  26.4293  43.7859 5065143 135.4623   4.7176  0.09890333  3107,26.4293,0.5065143,0.09890333,43.7859,135.4623,4.7176
33401,IBEX,HAO,16054.61828377,1 33401U 08051A   16054.61828377 -.00003453  00000-0  00000+0 0  1541\,2 33401  27.5289  41.6229 5764546 137.9719 357.5869  0.09862595  3116,27.5289,0.5764546,0.09862595,41.6229,137.9719,357.5869
33401,IBEX,HAO,16064.10815628,1 33401U 08051A   16064.10815628 -.00002725  00000-0  00000+0 0  1553\,2 33401  27.6745  41.1141 5548179 138.7585 356.4395  0.10489653  3129,27.6745,0.5548179,0.10489653,41.1141,138.7585,356.4395
33401,IBEX,HAO,16073.81464127,1 33401U 08051A   16073.81464127 -.00003031  00000-0  00000+0 0  1567\,2 33401  34.2528  32.1563 5944368 150.0185 357.9588  0.11101798  3136,34.2528,0.5944368,0.11101798,32.1563,150.0185,357.9588
33401,IBEX,HAO,16082.75455582,1 33401U 08051A   16082.75455582 -.00003504  00000-0  00000+0 0  1571\,2 33401  34.5841  31.9292 6126667 150.5038 359.6377  0.10531246  3140,34.5841,0.6126667,0.10531246,31.9292,150.5038,359.6377
33401,IBEX,HAO,16091.61915014,1 33401U 08051A   16091.61915014 -.00002623  00000-0  00000+0 0  1589\,2 33401  34.7928  31.4900 5927138 151.1375 358.5142  0.11247307  3153,34.7928,0.5927138,0.11247307,31.49,151.1375,358.5142
33401,IBEX,HAO,16100.56261109,1 33401U 08051A   16100.56261109 -.00002659  00000-0  00000+0 0  1593\,2 33401  38.5379  28.4409 6360897 155.9160   3.4699  0.11747215  3160,38.5379,0.6360897,0.11747215,28.4409,155.916,3.4699
33401,IBEX,HAO,16117.03465468,1 33401U 08051A   16117.03465468 -.00001898 +00000-0 +00000-0 0 0001\,2 33401 039.0807 027.8761 6339195 156.6452 359.4278 00.1212431400332,39.0807,0.6339195,0.12124314,27.8761,156.6452,359.4278
33401,IBEX,HAO,16125.30599111,1 33401U 08051A   16125.30599111 -.00001791  00000-0  00000+0 0  1618\,2 33401  39.3280  27.6971 6495403 156.2959   3.2196  0.11622221  3188,39.328,0.6495403,0.11622221,27.6971,156.2959,3.2196
33401,IBEX,HAO,16133.44170546,1 33401U 08051A   16133.44170546 -.00002351  00000-0  00000+0 0  1623\,2 33401  39.5899  27.4045 6395237 156.0581   2.2721  0.12168836  3191,39.5899,0.6395237,0.12168836,27.4045,156.0581,2.2721
33401,IBEX,HAO,16141.67149450,1 33401U 08051A   16141.67149450 -.00001141  00000-0  00000+0 0  1634\,2 33401  39.6950  27.1472 6421228 156.4973   1.7270  0.12007401  3205,39.695,0.6421228,0.12007401,27.1472,156.4973,1.727
33401,IBEX,HAO,16149.87394609,1 33401U 08051A   16149.87394609 -.00001136  00000-0  00000+0 0  1647\,2 33401  39.7839  27.0665 6368087 156.3197   1.6129  0.11916125  3219,39.7839,0.6368087,0.11916125,27.0665,156.3197,1.6129
33401,IBEX,HAO,16158.27156356,1 33401U 08051A   16158.27156356 -.00001535  00000-0  00000+0 0  1650\,2 33401  40.1378  25.9354 5767960 157.1498 357.6198  0.11853315  3222,40.1378,0.576796,0.11853315,25.9354,157.1498,357.6198
33401,IBEX,HAO,16167.01987788,1 33401U 08051A   16167.01987788 -.00001041  00000-0  00000+0 0  1666\,2 33401  40.3329  25.7178 5944445 157.6141   1.0409  0.11291723  3232,40.3329,0.5944445,0.11291723,25.7178,157.6141,1.0409
33401,IBEX,HAO,16175.62189591,1 33401U 08051A   16175.62189591 -.00000992  00000-0  00000+0 0  1673\,2 33401  40.4532  25.5623 5777827 157.6486 359.5311  0.11611295  3246,40.4532,0.5777827,0.11611295,25.5623,157.6486,359.5311
33401,IBEX,HAO,16184.39102019,1 33401U 08051A   16184.39102019 -.00001311  00000-0  00000+0 0  1684\,2 33401  42.6943  23.1919 5038901 164.4276 340.0236  0.11330860  3252,42.6943,0.5038901,0.1133086,23.1919,164.4276,340.0236
33401,IBEX,HAO,16193.90934182,1 33401U 08051A   16193.90934182 -.00001384  00000-0  00000+0 0  1696\,2 33401  42.9578  22.9821 5265683 164.7655   0.3616  0.10812575  3267,42.9578,0.5265683,0.10812575,22.9821,164.7655,0.3616
